CRE (WAAS/PRN 138)      
1 28868U 05036A   25036.30539360 -.00000074  00000+0  00000+0 0  9991
2 28868   3.0348  82.8079 0002124 265.4308 150.0948  1.00271497 41477
IOR-W (EGNOS/PRN 126)   
1 28899U 05044A   25036.51690925 -.00000261  00000+0  00000+0 0  9990
2 28899   4.4577  43.2300 0002420 277.2219 145.0174  1.00271142 70541
GSAT-8 (GAGAN/PRN 127)  
1 37605U 11022A   25036.52058595  .00000085  00000+0  00000+0 0  9993
2 37605   0.8436  88.3212 0008457 197.7696  92.2844  1.00272694 48234
LUCH 5A (SDCM/PRN 140)  
1 37951U 11074B   25036.56706554 -.00000052  00000+0  00000+0 0  9998
2 37951   7.4845  81.2999 0003344 214.9913 210.8529  1.00267985 48070
SES-5 (EGNOS/PRN 136)   
1 38652U 12036A   25036.32763502  .00000035  00000+0  00000+0 0  9996
2 38652   0.0537 294.2901 0001931  11.7801 312.5474  1.00268930 39490
GSAT-10 (GAGAN/PRN 128) 
1 38779U 12051B   25036.60253179 -.00000164  00000+0  00000+0 0  9992
2 38779   0.0708 267.9937 0002559 178.2938 349.6448  1.00270588 45113
LUCH 5B (SDCM/PRN 125)  
1 38977U 12061A   25036.32337787 -.00000139  00000+0  00000+0 0  9992
2 38977   9.4010  54.6196 0004291 201.8901 339.2628  1.00271200 44620
ASTRA 5B (EGNOS/PRN 123)
1 39617U 14011B   25036.33128400  .00000139  00000+0  00000+0 0  9991
2 39617   0.0448  25.5334 0004553 281.0958 331.8115  1.00269781 39688
LUCH 5V (SDCM/PRN 141)  
1 39727U 14023A   25036.59697685 -.00000268  00000+0  00000+0 0  9994
2 39727   3.8885  74.3148 0003958 245.4519 125.7730  1.00267210 39381
GSAT-15 (GAGAN/PRN 139) 
1 41028U 15065A   25036.59697685 -.00000257  00000+0  00000+0 0  9996
2 41028   0.0760 268.4109 0001469  27.0213 148.9329  1.00271965 33817
E 117 W B (WAAS/PRN 131)
1 41589U 16038B   25036.41502998 -.00000009  00000+0  00000+0 0  9997
2 41589   0.0105 208.5703 0000369 201.9470 117.6816  1.00271113 31685
SES-15 (WAAS/PRN 133)   
1 42709U 17026A   25036.63258998  .00000062  00000+0  00000+0 0  9990
2 42709   0.0179  35.6264 0000352 269.6134 289.3116  1.00269541  2468
QZS-2 (QZSS/PRN 194)    
1 42738U 17028A   25035.45162236 -.00000096  00000+0  00000+0 0  9990
2 42738  40.2016 250.4007 0749542 270.0222 278.9118  1.00270646  2636
QZS-3 (QZSS/PRN 199)    
1 42917U 17048A   25036.19142122 -.00000346  00000+0  00000+0 0  9993
2 42917   0.0833 230.6647 0001885  72.3583  28.3987  1.00276013 27384
QZS-4 (QZSS/PRN 195)    
1 42965U 17062A   25036.31354368 -.00000329  00000+0  00000+0 0  9994
2 42965  40.3991 349.8231 0750325 269.1025 128.4956  1.00288655 26830
BEIDOU-3 G1 (PRN 130)   
1 43683U 18085A   25036.54419806 -.00000279  00000+0  00000+0 0  9996
2 43683   2.7732 101.7155 0001184  11.2607 358.9279  1.00271736 23081
BEIDOU-3 G2 (PRN 144)   
1 45344U 20017A   25036.12824431 -.00000140  00000+0  00000+0 0  9995
2 45344   2.6493  37.3167 0003217 278.0789 306.3045  1.00272293 18272
BEIDOU-3 G3 (PRN 143)   
1 45807U 20040A   25036.59141916 -.00000353  00000+0  00000+0 0  9992
2 45807   1.2545  60.1072 0003161 305.7718  93.4477  1.00276085 17091
GALAXY 30 (WAAS/PRN 135)
1 46114U 20056C   25036.42572597  .00000039  00000+0  00000+0 0  9996
2 46114   0.0162  91.6109 0002097 226.3437 206.0942  1.00271834 16318
QZS-1R (QZSS/PRN 196)   
1 49336U 21096A   25027.49586074 -.00000266  00000+0  00000+0 0  9995
2 49336  36.4090  87.1392 0760333 272.1965  78.1859  1.00245711 11936
